{"type": "FeatureCollection", "features": [ {"type": "Feature", "properties": {"norad_id": 34547, "name": "COSMOS 2251 DEB", "group": "cosmos-2251-debris", "lat": -55.07067531878417, "lon": 58.75958656545479, "alt_km": 668.550961384959, "timestamp": "2025-12-21T20:41:08.350296+00:00", "meta": {"OBJECT_NAME": "COSMOS 2251 DEB", "OBJECT_ID": "1993-036UH", "EPOCH": "2025-12-21T06:16:36.725088", "MEAN_MOTION": 14.72512483, "ECCENTRICITY": 0.00163934, "INCLINATION": 74.0317, "RA_OF_ASC_NODE": 84.1334, "ARG_OF_PERICENTER": 162.7845, "MEAN_ANOMALY": 197.3887, "EPHEMERIS_TYPE": 0, "CLASSIFICATION_TYPE": "U", "NORAD_CAT_ID": 34547, "ELEMENT_SET_NO": 999, "REV_AT_EPOCH": 88647, "BSTAR": 0.00122774, "MEAN_MOTION_DOT": 7.792e-05, "MEAN_MOTION_DDOT": 0}, "tle": {"line1": "1 34547U 93036UH  25355.26153617  .00007792  00000+0  12277-2 0  9990", "line2": "2 34547  74.0317  84.1334 0016393 162.7845 197.3887 14.72512483886478"}}, "geometry": {"type": "Point", "coordinates": [58.75958656545479, -55.07067531878417]}}, {"type": "Feature", "properties": {"norad_id": 34553, "name": "COSMOS 2251 DEB", "group": "cosmos-2251-debris", "lat": 68.99904147067464, "lon": -137.19575050617493, "alt_km": 706.7061070737482, "timestamp": "2025-12-21T20:41:08.350305+00:00", "meta": {"OBJECT_NAME": "COSMOS 2251 DEB", "OBJECT_ID": "1993-036UP", "EPOCH": "2025-12-21T12:14:40.588800", "MEAN_MOTION": 14.57796029, "ECCENTRICITY": 0.00191028, "INCLINATION": 74.0239, "RA_OF_ASC_NODE": 175.2044, "ARG_OF_PERICENTER": 251.8858, "MEAN_ANOMALY": 139.3143, "EPHEMERIS_TYPE": 0, "CLASSIFICATION_TYPE": "U", "NORAD_CAT_ID": 34553, "ELEMENT_SET_NO": 999, "REV_AT_EPOCH": 88224, "BSTAR": 0.0008261884, "MEAN_MOTION_DOT": 3.761e-05, "MEAN_MOTION_DDOT": 0}, "tle": {"line1": "1 34553U 93036UP  25355.51019200  .00003761  00000+0  82619-3 0  9994", "line2": "2 34553  74.0239 175.2044 0019102 251.8858 139.3143 14.57796029882248"}}, "geometry": {"type": "Point", "coordinates": [-137.19575050617493, 68.99904147067464]}}, {"type": "Feature", "properties": {"norad_id": 34554, "name": "COSMOS 2251 DEB", "group": "cosmos-2251-debris", "lat": -65.94381242631862, "lon": 142.06985827705026, "alt_km": 772.3905613367315, "timestamp": "2025-12-21T20:41:08.350314+00:00", "meta": {"OBJECT_NAME": "COSMOS 2251 DEB", "OBJECT_ID": "1993-036UQ", "EPOCH": "2025-12-20T05:48:54.109152", "MEAN_MOTION": 14.37952739, "ECCENTRICITY": 0.002333, "INCLINATION": 74.0392, "RA_OF_ASC_NODE": 285.1768, "ARG_OF_PERICENTER": 346.0878, "MEAN_ANOMALY": 165.1635, "EPHEMERIS_TYPE": 0, "CLASSIFICATION_TYPE": "U", "NORAD_CAT_ID": 34554, "ELEMENT_SET_NO": 999, "REV_AT_EPOCH": 87863, "BSTAR": 0.00024183, "MEAN_MOTION_DOT": 7.07e-06, "MEAN_MOTION_DDOT": 0}, "tle": {"line1": "1 34554U 93036UQ  25354.24229293  .00000707  00000+0  24183-3 0  9998", "line2": "2 34554  74.0392 285.1768 0023330 346.0878 165.1635 14.37952739878631"}}, "geometry": {"type": "Point", "coordinates": [142.06985827705026, -65.94381242631862]}}, {"type": "Feature", "properties": {"norad_id": 34556, "name": "COSMOS 2251 DEB", "group": "cosmos-2251-debris", "lat": -69.64723137434255, "lon": 56.3283267137054, "alt_km": 644.456337408169, "timestamp": "2025-12-21T20:41:08.350323+00:00", "meta": {"OBJECT_NAME": "COSMOS 2251 DEB", "OBJECT_ID": "1993-036US", "EPOCH": "2025-12-20T17:58:02.520192", "MEAN_MOTION": 14.78025681, "ECCENTRICITY": 0.00068003, "INCLINATION": 74.0159, "RA_OF_ASC_NODE": 109.1125, "ARG_OF_PERICENTER": 169.8839, "MEAN_ANOMALY": 311.7101, "EPHEMERIS_TYPE": 0, "CLASSIFICATION_TYPE": "U", "NORAD_CAT_ID": 34556, "ELEMENT_SET_NO": 999, "REV_AT_EPOCH": 88447, "BSTAR": 0.0013550836, "MEAN_MOTION_DOT": 9.769e-05, "MEAN_MOTION_DDOT": 0}, "tle": {"line1": "1 34556U 93036US  25354.74864028  .00009769  00000+0  13551-2 0  9999", "line2": "2 34556  74.0159 109.1125 0006800 169.8839 311.7101 14.78025681884475"}}, "geometry": {"type": "Point", "coordinates": [56.3283267137054, -69.64723137434255]}}, {"type": "Feature", "properties": {"norad_id": 34560, "name": "COSMOS 2251 DEB", "group": "cosmos-2251-debris", "lat": -10.076323001527085, "lon": 121.4434519829711, "alt_km": 665.3329048056175, "timestamp": "2025-12-21T20:41:08.350332+00:00", "meta": {"OBJECT_NAME": "COSMOS 2251 DEB", "OBJECT_ID": "1993-036UW", "EPOCH": "2025-12-21T09:34:44.023296", "MEAN_MOTION": 14.7233853, "ECCENTRICITY": 0.00140187, "INCLINATION": 74.0171, "RA_OF_ASC_NODE": 125.2641, "ARG_OF_PERICENTER": 207.4959, "MEAN_ANOMALY": 210.1131, "EPHEMERIS_TYPE": 0, "CLASSIFICATION_TYPE": "U", "NORAD_CAT_ID": 34560, "ELEMENT_SET_NO": 999, "REV_AT_EPOCH": 88379, "BSTAR": 0.0016006004, "MEAN_MOTION_DOT": 0.00010125, "MEAN_MOTION_DDOT": 0}, "tle": {"line1": "1 34560U 93036UW  25355.39912064  .00010125  00000+0  16006-2 0  9996", "line2": "2 34560  74.0171 125.2641 0014018 207.4959 210.1131 14.72338530883791"}}, "geometry": {"type": "Point", "coordinates": [121.4434519829711, -10.076323001527085]}}, {"type": "Feature", "properties": {"norad_id": 34563, "name": "COSMOS 2251 DEB", "group": "cosmos-2251-debris", "lat": -9.215918235132872, "lon": -175.9844405164918, "alt_km": 737.3897871200852, "timestamp": "2025-12-21T20:41:08.350341+00:00", "meta": {"OBJECT_NAME": "COSMOS 2251 DEB", "OBJECT_ID": "1993-036UZ", "EPOCH": "2025-12-21T12:34:03.902592", "MEAN_MOTION": 14.46534842, "ECCENTRICITY": 0.00139138, "INCLINATION": 74.0367, "RA_OF_ASC_NODE": 187.3088, "ARG_OF_PERICENTER": 280.8759, "MEAN_ANOMALY": 108.7913, "EPHEMERIS_TYPE": 0, "CLASSIFICATION_TYPE": "U", "NORAD_CAT_ID": 34563, "ELEMENT_SET_NO": 999, "REV_AT_EPOCH": 88324, "BSTAR": 0.00033066382, "MEAN_MOTION_DOT": 1.166e-05, "MEAN_MOTION_DDOT": 0}, "tle": {"line1": "1 34563U 93036UZ  25355.52365628  .00001166  00000+0  33066-3 0  9993", "line2": "2 34563  74.0367 187.3088 0013913 280.8759 108.7913 14.46534842883246"}}, "geometry": {"type": "Point", "coordinates": [-175.9844405164918, -9.215918235132872]}}, {"type": "Feature", "properties": {"norad_id": 34564, "name": "COSMOS 2251 DEB", "group": "cosmos-2251-debris", "lat": -58.1250735807634, "lon": -166.28206357766507, "alt_km": 750.492734076849, "timestamp": "2025-12-21T20:41:08.350351+00:00", "meta": {"OBJECT_NAME": "COSMOS 2251 DEB", "OBJECT_ID": "1993-036VA", "EPOCH": "2025-12-21T01:40:16.342176", "MEAN_MOTION": 14.40703135, "ECCENTRICITY": 0.00193185, "INCLINATION": 74.0316, "RA_OF_ASC_NODE": 222.6004, "ARG_OF_PERICENTER": 325.3273, "MEAN_ANOMALY": 185.3128, "EPHEMERIS_TYPE": 0, "CLASSIFICATION_TYPE": "U", "NORAD_CAT_ID": 34564, "ELEMENT_SET_NO": 999, "REV_AT_EPOCH": 88126, "BSTAR": 0.00017237979, "MEAN_MOTION_DOT": 5.25e-06, "MEAN_MOTION_DDOT": 0}, "tle": {"line1": "1 34564U 93036VA  25355.06963359  .00000525  00000+0  17238-3 0  9999", "line2": "2 34564  74.0316 222.6004 0019318 325.3273 185.3128 14.40703135881269"}}, "geometry": {"type": "Point", "coordinates": [-166.28206357766507, -58.1250735807634]}}, {"type": "Feature", "properties": {"norad_id": 34567, "name": "COSMOS 2251 DEB", "group": "cosmos-2251-debris", "lat": 22.68253412863808, "lon": -46.506789675478714, "alt_km": 781.2254911240616, "timestamp": "2025-12-21T20:41:08.350360+00:00", "meta": {"OBJECT_NAME": "COSMOS 2251 DEB", "OBJECT_ID": "1993-036VD", "EPOCH": "2025-12-21T09:58:43.315968", "MEAN_MOTION": 14.24025589, "ECCENTRICITY": 0.00741969, "INCLINATION": 74.0408, "RA_OF_ASC_NODE": 141.1649, "ARG_OF_PERICENTER": 213.5588, "MEAN_ANOMALY": 177.2622, "EPHEMERIS_TYPE": 0, "CLASSIFICATION_TYPE": "U", "NORAD_CAT_ID": 34567, "ELEMENT_SET_NO": 999, "REV_AT_EPOCH": 87248, "BSTAR": 0.00018913184, "MEAN_MOTION_DOT": 4.21e-06, "MEAN_MOTION_DDOT": 0}, "tle": {"line1": "1 34567U 93036VD  25355.41577912  .00000421  00000+0  18913-3 0  9993", "line2": "2 34567  74.0408 141.1649 0074196 213.5588 177.2622 14.24025589872481"}}, "geometry": {"type": "Point", "coordinates": [-46.506789675478714, 22.68253412863808]}}, {"type": "Feature", "properties": {"norad_id": 34569, "name": "COSMOS 2251 DEB", "group": "cosmos-2251-debris", "lat": -12.592240811909239, "lon": 177.96401611137534, "alt_km": 707.2365587175655, "timestamp": "2025-12-21T20:41:08.350369+00:00", "meta": {"OBJECT_NAME": "COSMOS 2251 DEB", "OBJECT_ID": "1993-036VF", "EPOCH": "2025-12-21T07:31:30.980928", "MEAN_MOTION": 14.24772828, "ECCENTRICITY": 0.01576991, "INCLINATION": 73.9894, "RA_OF_ASC_NODE": 182.6328, "ARG_OF_PERICENTER": 9.0645, "MEAN_ANOMALY": 47.1114, "EPHEMERIS_TYPE": 0, "CLASSIFICATION_TYPE": "U", "NORAD_CAT_ID": 34569, "ELEMENT_SET_NO": 999, "REV_AT_EPOCH": 87090, "BSTAR": 0.00035958534, "MEAN_MOTION_DOT": 9.27e-06, "MEAN_MOTION_DDOT": 0}, "tle": {"line1": "1 34569U 93036VF  25355.31355302  .00000927  00000+0  35959-3 0  9991", "line2": "2 34569  73.9894 182.6328 0157699   9.0645  47.1114 14.24772828870907"}}, "geometry": {"type": "Point", "coordinates": [177.96401611137534, -12.592240811909239]}}, {"type": "Feature", "properties": {"norad_id": 34570, "name": "COSMOS 2251 DEB", "group": "cosmos-2251-debris", "lat": -2.2548783985147867, "lon": 23.06796352454498, "alt_km": 917.1441773215893, "timestamp": "2025-12-21T20:41:08.350378+00:00", "meta": {"OBJECT_NAME": "COSMOS 2251 DEB", "OBJECT_ID": "1993-036VG", "EPOCH": "2025-12-21T06:41:00.076704", "MEAN_MOTION": 13.99833504, "ECCENTRICITY": 0.0190292, "INCLINATION": 73.9568, "RA_OF_ASC_NODE": 203.4332, "ARG_OF_PERICENTER": 84.0165, "MEAN_ANOMALY": 37.063, "EPHEMERIS_TYPE": 0, "CLASSIFICATION_TYPE": "U", "NORAD_CAT_ID": 34570, "ELEMENT_SET_NO": 999, "REV_AT_EPOCH": 85720, "BSTAR": 0.00041501, "MEAN_MOTION_DOT": 6.89e-06, "MEAN_MOTION_DDOT": 0}, "tle": {"line1": "1 34570U 93036VG  25355.27847311  .00000689  00000+0  41501-3 0  9999", "line2": "2 34570  73.9568 203.4332 0190292  84.0165  37.0630 13.99833504857209"}}, "geometry": {"type": "Point", "coordinates": [23.06796352454498, -2.2548783985147867]}}]}